ONEWEB-0207             
1 48242U 21031AJ  25336.03313654 -.00000002  00000+0 -38686-4 0  9999
2 48242  87.8995 328.9675 0001523  89.8722 270.2582 13.14501560222395
ONEWEB-0208             
1 48243U 21031AK  25336.01490160 -.00000223  00000+0 -63686-3 0  9998
2 48243  87.8985 328.9868 0001751  81.4981 278.6347 13.14503525222403
ONEWEB-0200             
1 48244U 21031AL  25336.05454209  .00001007  00000+0  26807-2 0  9999
2 48244  87.8987 328.9684 0001625  84.5320 275.5995 13.14509849222335
ONEWEB-0217             
1 48245U 21031AM  25335.99428753  .00000061  00000+0  13128-3 0  9999
2 48245  87.8994 328.9740 0001793  78.0580 282.0750 13.14502694222275
ONEWEB-0211             
1 48767U 21045A   25335.99058657 -.00000084  00000+0 -25487-3 0  9993
2 48767  87.8990 298.4681 0002134  71.3367 288.7995 13.16135973218503
ONEWEB-0223             
1 48768U 21045B   25336.12873411  .00000171  00000+0  41886-3 0  9999
2 48768  87.8986 298.5026 0002283  77.1682 282.9703 13.15547263218491
ONEWEB-0230             
1 48769U 21045C   25335.94809919 -.00000052  00000+0 -17105-3 0  9998
2 48769  87.8976 298.5694 0001821  86.7478 273.3861 13.15548308218735
ONEWEB-0237             
1 48770U 21045D   25336.16517773 -.00000065  00000+0 -20755-3 0  9998
2 48770  87.8978 298.5259 0002137  81.1817 278.9555 13.15547592218480
